SL-14 R/B               
1 21423U 91042B   26039.92396769  .00000411  00000+0  49024-4 0  9997
2 21423  82.4898 247.1633 0016517 340.5915  19.4668 14.81801488848812
ERS-1                   
1 21574U 91050A   26039.64152978  .00000384  00000+0  13770-3 0  9991
2 21574  98.7896  57.1456 0030926 289.1123  70.6716 14.39425147811559
ARIANE 40 R/B           
1 21610U 91050F   26039.69219873  .00000348  00000+0  11670-3 0  9992
2 21610  98.2075  93.0082 0003778 145.5263 214.6173 14.42871785814819
INTERCOSMOS 25          
1 21819U 91086A   26039.84352455  .00001320  00000+0  25605-3 0  9997
2 21819  82.6086 327.4393 1486767 179.0752 181.3690 12.11918738493199
SL-8 R/B                
1 21876U 92008B   26039.70634951  .00000045  00000+0  30783-4 0  9991
2 21876  82.9263 289.3399 0033831 214.0108 200.3399 13.75969676705437
SL-8 R/B                
1 21938U 92020B   26039.89809679  .00000129  00000+0  11828-3 0  9996
2 21938  82.9330 175.1318 0029293  20.7238  93.1121 13.75545161697178
USA 81                  
1 21949U 92023A   26039.80745679  .00000253  00000+0  86157-4 0  9997
2 21949  85.0120 148.0948 0002601 103.4731 256.6752 14.32357253 90653
COSMOS 2219             
1 22219U 92076A   26039.51822141 -.00000109  00000+0 -32289-4 0  9993
2 22219  71.0583  79.0541 0020334 247.1455 112.7520 14.14076528714253
SL-16 R/B               
1 22220U 92076B   26039.97117440  .00000045  00000+0  46429-4 0  9992
2 22220  70.9979 248.8695 0011471 147.6676 318.0201 14.16855810717766
COSMOS 2221             
1 22236U 92080A   26039.81191916  .00002538  00000+0  22330-3 0  9990
2 22236  82.5055 306.7377 0012916 293.3091  66.6771 14.96085391776471
SL-16 R/B               
1 22285U 92093B   26039.48202815 -.00000098  00000+0 -25880-4 0  9997
2 22285  71.0201  65.5825 0005136 324.3596  35.7184 14.15440978709029
COSMOS 2228             
1 22286U 92094A   26039.91399479  .00001966  00000+0  16782-3 0  9993
2 22286  82.5157 264.8657 0019055  42.3188 317.9501 14.97057514771750
