CCSDS_OMM_VERS = 2.0
CREATION_DATE  = 
ORIGINATOR     = 

OBJECT_NAME    = SL-14 R/B
OBJECT_ID      = 1991-042B
CENTER_NAME    = EARTH
REF_FRAME      = TEME
TIME_SYSTEM    = UTC
MEAN_ELEMENT_THEORY = SGP/SGP4

EPOCH          = 2026-02-08T22:10:30.808416
MEAN_MOTION    = 14.81801488
ECCENTRICITY   = .0016517
INCLINATION    = 82.4898
RA_OF_ASC_NODE = 247.1633
ARG_OF_PERICENTER = 340.5915
MEAN_ANOMALY   = 19.4668

EPHEMERIS_TYPE = 0
CLASSIFICATION_TYPE = U
NORAD_CAT_ID   = 21423
ELEMENT_SET_NO = 999
REV_AT_EPOCH   = 84881
BSTAR          = .49023775E-4
MEAN_MOTION_DOT = .411E-5
MEAN_MOTION_DDOT = 0

CCSDS_OMM_VERS = 2.0
CREATION_DATE  = 
ORIGINATOR     = 

OBJECT_NAME    = ERS-1
OBJECT_ID      = 1991-050A
CENTER_NAME    = EARTH
REF_FRAME      = TEME
TIME_SYSTEM    = UTC
MEAN_ELEMENT_THEORY = SGP/SGP4

EPOCH          = 2026-02-08T15:23:48.172992
MEAN_MOTION    = 14.39425147
ECCENTRICITY   = .0030926
INCLINATION    = 98.7896
RA_OF_ASC_NODE = 57.1456
ARG_OF_PERICENTER = 289.1123
MEAN_ANOMALY   = 70.6716

EPHEMERIS_TYPE = 0
CLASSIFICATION_TYPE = U
NORAD_CAT_ID   = 21574
ELEMENT_SET_NO = 999
REV_AT_EPOCH   = 81155
BSTAR          = .1377E-3
MEAN_MOTION_DOT = .384E-5
MEAN_MOTION_DDOT = 0

CCSDS_OMM_VERS = 2.0
CREATION_DATE  = 
ORIGINATOR     = 

OBJECT_NAME    = ARIANE 40 R/B
OBJECT_ID      = 1991-050F
CENTER_NAME    = EARTH
REF_FRAME      = TEME
TIME_SYSTEM    = UTC
MEAN_ELEMENT_THEORY = SGP/SGP4

EPOCH          = 2026-02-08T16:36:45.970272
MEAN_MOTION    = 14.42871785
ECCENTRICITY   = .00037781
INCLINATION    = 98.2075
RA_OF_ASC_NODE = 93.0082
ARG_OF_PERICENTER = 145.5263
MEAN_ANOMALY   = 214.6173

EPHEMERIS_TYPE = 0
CLASSIFICATION_TYPE = U
NORAD_CAT_ID   = 21610
ELEMENT_SET_NO = 999
REV_AT_EPOCH   = 81481
BSTAR          = .11669887E-3
MEAN_MOTION_DOT = .348E-5
MEAN_MOTION_DDOT = 0

CCSDS_OMM_VERS = 2.0
CREATION_DATE  = 
ORIGINATOR     = 

OBJECT_NAME    = INTERCOSMOS 25
OBJECT_ID      = 1991-086A
CENTER_NAME    = EARTH
REF_FRAME      = TEME
TIME_SYSTEM    = UTC
MEAN_ELEMENT_THEORY = SGP/SGP4

EPOCH          = 2026-02-08T20:14:40.521120
MEAN_MOTION    = 12.11918738
ECCENTRICITY   = .14867672
INCLINATION    = 82.6086
RA_OF_ASC_NODE = 327.4393
ARG_OF_PERICENTER = 179.0752
MEAN_ANOMALY   = 181.3690

EPHEMERIS_TYPE = 0
CLASSIFICATION_TYPE = U
NORAD_CAT_ID   = 21819
ELEMENT_SET_NO = 999
REV_AT_EPOCH   = 49319
BSTAR          = .25604543E-3
MEAN_MOTION_DOT = .132E-4
MEAN_MOTION_DDOT = 0

CCSDS_OMM_VERS = 2.0
CREATION_DATE  = 
ORIGINATOR     = 

OBJECT_NAME    = SL-8 R/B
OBJECT_ID      = 1992-008B
CENTER_NAME    = EARTH
REF_FRAME      = TEME
TIME_SYSTEM    = UTC
MEAN_ELEMENT_THEORY = SGP/SGP4

EPOCH          = 2026-02-08T16:57:08.597664
MEAN_MOTION    = 13.75969676
ECCENTRICITY   = .00338315
INCLINATION    = 82.9263
RA_OF_ASC_NODE = 289.3399
ARG_OF_PERICENTER = 214.0108
MEAN_ANOMALY   = 200.3399

EPHEMERIS_TYPE = 0
CLASSIFICATION_TYPE = U
NORAD_CAT_ID   = 21876
ELEMENT_SET_NO = 999
REV_AT_EPOCH   = 70543
BSTAR          = .30782827E-4
MEAN_MOTION_DOT = .45E-6
MEAN_MOTION_DDOT = 0

CCSDS_OMM_VERS = 2.0
CREATION_DATE  = 
ORIGINATOR     = 

OBJECT_NAME    = SL-8 R/B
OBJECT_ID      = 1992-020B
CENTER_NAME    = EARTH
REF_FRAME      = TEME
TIME_SYSTEM    = UTC
MEAN_ELEMENT_THEORY = SGP/SGP4

EPOCH          = 2026-02-08T21:33:15.562656
MEAN_MOTION    = 13.75545161
ECCENTRICITY   = .00292931
INCLINATION    = 82.9330
RA_OF_ASC_NODE = 175.1318
ARG_OF_PERICENTER = 20.7238
MEAN_ANOMALY   = 93.1121

EPHEMERIS_TYPE = 0
CLASSIFICATION_TYPE = U
NORAD_CAT_ID   = 21938
ELEMENT_SET_NO = 999
REV_AT_EPOCH   = 69717
BSTAR          = .1182787E-3
MEAN_MOTION_DOT = .129E-5
MEAN_MOTION_DDOT = 0

CCSDS_OMM_VERS = 2.0
CREATION_DATE  = 
ORIGINATOR     = 

OBJECT_NAME    = USA 81
OBJECT_ID      = 1992-023A
CENTER_NAME    = EARTH
REF_FRAME      = TEME
TIME_SYSTEM    = UTC
MEAN_ELEMENT_THEORY = SGP/SGP4

EPOCH          = 2026-02-08T19:22:44.266656
MEAN_MOTION    = 14.32357253
ECCENTRICITY   = .00026013
INCLINATION    = 85.0120
RA_OF_ASC_NODE = 148.0948
ARG_OF_PERICENTER = 103.4731
MEAN_ANOMALY   = 256.6752

EPHEMERIS_TYPE = 0
CLASSIFICATION_TYPE = U
NORAD_CAT_ID   = 21949
ELEMENT_SET_NO = 999
REV_AT_EPOCH   = 9065
BSTAR          = .86156833E-4
MEAN_MOTION_DOT = .253E-5
MEAN_MOTION_DDOT = 0

CCSDS_OMM_VERS = 2.0
CREATION_DATE  = 
ORIGINATOR     = 

OBJECT_NAME    = COSMOS 2219
OBJECT_ID      = 1992-076A
CENTER_NAME    = EARTH
REF_FRAME      = TEME
TIME_SYSTEM    = UTC
MEAN_ELEMENT_THEORY = SGP/SGP4

EPOCH          = 2026-02-08T12:26:14.329824
MEAN_MOTION    = 14.14076528
ECCENTRICITY   = .00203345
INCLINATION    = 71.0583
RA_OF_ASC_NODE = 79.0541
ARG_OF_PERICENTER = 247.1455
MEAN_ANOMALY   = 112.7520

EPHEMERIS_TYPE = 0
CLASSIFICATION_TYPE = U
NORAD_CAT_ID   = 22219
ELEMENT_SET_NO = 999
REV_AT_EPOCH   = 71425
BSTAR          = -.32289399E-4
MEAN_MOTION_DOT = -.109E-5
MEAN_MOTION_DDOT = 0

CCSDS_OMM_VERS = 2.0
CREATION_DATE  = 
ORIGINATOR     = 

OBJECT_NAME    = SL-16 R/B
OBJECT_ID      = 1992-076B
CENTER_NAME    = EARTH
REF_FRAME      = TEME
TIME_SYSTEM    = UTC
MEAN_ELEMENT_THEORY = SGP/SGP4

EPOCH          = 2026-02-08T23:18:29.468160
MEAN_MOTION    = 14.16855810
ECCENTRICITY   = .00114716
INCLINATION    = 70.9979
RA_OF_ASC_NODE = 248.8695
ARG_OF_PERICENTER = 147.6676
MEAN_ANOMALY   = 318.0201

EPHEMERIS_TYPE = 0
CLASSIFICATION_TYPE = U
NORAD_CAT_ID   = 22220
ELEMENT_SET_NO = 999
REV_AT_EPOCH   = 71776
BSTAR          = .46429472E-4
MEAN_MOTION_DOT = .45E-6
MEAN_MOTION_DDOT = 0

CCSDS_OMM_VERS = 2.0
CREATION_DATE  = 
ORIGINATOR     = 

OBJECT_NAME    = COSMOS 2221
OBJECT_ID      = 1992-080A
CENTER_NAME    = EARTH
REF_FRAME      = TEME
TIME_SYSTEM    = UTC
MEAN_ELEMENT_THEORY = SGP/SGP4

EPOCH          = 2026-02-08T19:29:09.815424
MEAN_MOTION    = 14.96085391
ECCENTRICITY   = .00129168
INCLINATION    = 82.5055
RA_OF_ASC_NODE = 306.7377
ARG_OF_PERICENTER = 293.3091
MEAN_ANOMALY   = 66.6771

EPHEMERIS_TYPE = 0
CLASSIFICATION_TYPE = U
NORAD_CAT_ID   = 22236
ELEMENT_SET_NO = 999
REV_AT_EPOCH   = 77647
BSTAR          = .22329509E-3
MEAN_MOTION_DOT = .2538E-4
MEAN_MOTION_DDOT = 0

CCSDS_OMM_VERS = 2.0
CREATION_DATE  = 
ORIGINATOR     = 

OBJECT_NAME    = SL-16 R/B
OBJECT_ID      = 1992-093B
CENTER_NAME    = EARTH
REF_FRAME      = TEME
TIME_SYSTEM    = UTC
MEAN_ELEMENT_THEORY = SGP/SGP4

EPOCH          = 2026-02-08T11:34:07.232160
MEAN_MOTION    = 14.15440978
ECCENTRICITY   = .00051366
INCLINATION    = 71.0201
RA_OF_ASC_NODE = 65.5825
ARG_OF_PERICENTER = 324.3596
MEAN_ANOMALY   = 35.7184

EPHEMERIS_TYPE = 0
CLASSIFICATION_TYPE = U
NORAD_CAT_ID   = 22285
ELEMENT_SET_NO = 999
REV_AT_EPOCH   = 70902
BSTAR          = -.25880291E-4
MEAN_MOTION_DOT = -.98E-6
MEAN_MOTION_DDOT = 0

CCSDS_OMM_VERS = 2.0
CREATION_DATE  = 
ORIGINATOR     = 

OBJECT_NAME    = COSMOS 2228
OBJECT_ID      = 1992-094A
CENTER_NAME    = EARTH
REF_FRAME      = TEME
TIME_SYSTEM    = UTC
MEAN_ELEMENT_THEORY = SGP/SGP4

EPOCH          = 2026-02-08T21:56:09.149856
MEAN_MOTION    = 14.97057514
ECCENTRICITY   = .0019055
INCLINATION    = 82.5157
RA_OF_ASC_NODE = 264.8657
ARG_OF_PERICENTER = 42.3188
MEAN_ANOMALY   = 317.9501

EPHEMERIS_TYPE = 0
CLASSIFICATION_TYPE = U
NORAD_CAT_ID   = 22286
ELEMENT_SET_NO = 999
REV_AT_EPOCH   = 77175
BSTAR          = .16782068E-3
MEAN_MOTION_DOT = .1966E-4
MEAN_MOTION_DDOT = 0

